STARLINK-3114_new
1 19426C 21104U   21326.14776561 -.00864684  00000-0 -32279-2 0  3261
2 19426  53.2176  90.8283 0024715  64.7626 235.2812 15.87572867    11
STARLINK-3114_old
1 29426C 21104U   21325.19099272 -.00818679  00000-0 -27586-2 0  3259
2 29426  53.2175  95.6703 0032129  63.6079 162.1675 15.89195362    16
